{
    "links": {
        "self": "http://www.neowsapp.com/rest/v1/neo/3843282?api_key=iIulBulltgU6a56xZRHN4H3l9WmuAYTsLGpBGhQ2"
    },
    "id": "3843282",
    "neo_reference_id": "3843282",
    "name": "(2019 NH6)",
    "designation": "2019 NH6",
    "nasa_jpl_url": "http://ssd.jpl.nasa.gov/sbdb.cgi?sstr=3843282",
    "absolute_magnitude_h": 24.9,
    "estimated_diameter": {
        "kilometers": {
            "estimated_diameter_min": 0.0278326768,
            "estimated_diameter_max": 0.0622357573
        },
        "meters": {
            "estimated_diameter_min": 27.8326768072,
            "estimated_diameter_max": 62.2357573367
        },
        "miles": {
            "estimated_diameter_min": 0.0172944182,
            "estimated_diameter_max": 0.0386714948
        },
        "feet": {
            "estimated_diameter_min": 91.3145593761,
            "estimated_diameter_max": 204.1855621004
        }
    },
    "is_potentially_hazardous_asteroid": false,
    "close_approach_data": [
        {
            "close_approach_date": "2019-07-23",
            "close_approach_date_full": "2019-Jul-23 16:30",
            "epoch_date_close_approach": 1563899400000,
            "relative_velocity": {
                "kilometers_per_second": "2.2489561535",
                "kilometers_per_hour": "8096.2421527264",
                "miles_per_hour": "5030.6900198427"
            },
            "miss_distance": {
                "astronomical": "0.1256864518",
                "lunar": "48.8920297502",
                "kilometers": "18802425.477137666",
                "miles": "11683285.4303491508"
            },
            "orbiting_body": "Earth"
        }
    ],
    "orbital_data": {
        "orbit_id": "1",
        "orbit_determination_date": "2019-07-11 15:42:03",
        "first_observation_date": "2019-07-06",
        "last_observation_date": "2019-07-11",
        "data_arc_in_days": 5,
        "observations_used": 10,
        "orbit_uncertainty": "8",
        "minimum_orbit_intersection": ".114999",
        "jupiter_tisserand_invariant": "5.551",
        "epoch_osculation": "2458673.5",
        "eccentricity": ".02596463375852438",
        "semi_major_axis": "1.125592919658981",
        "inclination": "3.235349190137059",
        "ascending_node_longitude": "310.9274708711688",
        "orbital_period": "436.1847280538975",
        "perihelion_distance": "1.096367311738847",
        "perihelion_argument": "109.3715001924439",
        "aphelion_distance": "1.154818527579114",
        "perihelion_time": "2458831.531857798855",
        "mean_anomaly": "229.5702413483905",
        "mean_motion": ".8253383872612714",
        "equinox": "J2000",
        "orbit_class": {
            "orbit_class_type": "AMO",
            "orbit_class_description": "Near-Earth asteroid orbits similar to that of 1221 Amor",
            "orbit_class_range": "1.017 AU < q (perihelion) < 1.3 AU"
        }
    },
    "is_sentry_object": false
}